UNKNOWN                 
1 81893U          26069.43313226  .00001229  00000+0  12944-2 0  9991
2 81893 100.0570  62.6187 0022071  46.0299 314.2664 13.76914684616149
UNKNOWN                 
1 81899U          26069.54370990  .00001847  00000+0  43616-2 0  9996
2 81899 102.4112 192.1729 0169495  29.0011 332.0387 13.20480450590575
UNKNOWN                 
1 81921U          26062.08620288  .00001918  00000+0  80283-3 0  9993
2 81921  65.7062 230.7222 0843493  79.7316 289.7632 13.15432327 36356
UNKNOWN                 
1 81946U          26066.43239678  .00000090  00000+0  46517-3 0  9994
2 81946  66.4243 349.7242 0677948 310.5900 161.2817 12.42642894558405
UNKNOWN                 
1 81947U          26046.26945095  .00004726  00000+0  46514-3 0  9998
2 81947  66.0766 348.0426 0369408 102.1486 262.1250 14.53453444640398
UNKNOWN                 
1 81964U          26068.30038687  .00000325  00000+0  29400-3 0  9992
2 81964  66.5850  43.7998 0033682  17.5980 342.6258 13.95858628626124
UNKNOWN                 
1 81969U          26069.43104776  .00011635  00000+0  65147-3 0  9999
2 81969  86.6825 115.3208 0003865 172.6099 187.5198 15.13316668453423
UNKNOWN                 
1 81995U          26063.96248604  .00005163  00000+0  96399-3 0  9991
2 81995  65.7446 268.6872 0516129 256.6593  97.6465 14.04989219615775
UNKNOWN                 
1 82043U          26066.84963163  .00007300  00000+0  19915-2 0  9993
2 82043  97.9377 213.4789 0230426 187.1871 172.5993 14.33067883586036
UNKNOWN                 
1 82051U          26046.47695657  .00006292  00000+0  20421-2 0  9992
2 82051  98.7424 137.9574 0090792  69.8098 291.2824 14.36892613581707
UNKNOWN                 
1 82073U          26069.63154257  .00002329  00000+0  59382-3 0  9991
2 82073  97.7388 142.3767 0205727  19.7407 341.1599 14.39483119587763
UNKNOWN                 
1 82139U          26068.15154005  .00003245  00000+0  16135-2 0  9997
2 82139  99.0127 142.0565 0084567 157.7190 202.7692 14.15908779492347
